[{"OBJECT_NAME":"YAOGAN-35 03C","OBJECT_ID":"2022-088E","EPOCH":"2026-03-09T11:20:59.130240","MEAN_MOTION":15.39002434,"ECCENTRICITY":0.00029739,"INCLINATION":34.9967,"RA_OF_ASC_NODE":77.5598,"ARG_OF_PERICENTER":203.8466,"MEAN_ANOMALY":156.2116,"EPHEMERIS_TYPE":0,"CLASSIFICATION_TYPE":"U","NORAD_CAT_ID":53320,"ELEMENT_SET_NO":999,"REV_AT_EPOCH":20153,"BSTAR":0.00082360226,"MEAN_MOTION_DOT":0.00032803,"MEAN_MOTION_DDOT":0},{"OBJECT_NAME":"STARLINK-30137","OBJECT_ID":"2023-079W","EPOCH":"2026-03-09T22:00:01.999584","MEAN_MOTION":15.20302785,"ECCENTRICITY":0.00014451,"INCLINATION":43.0008,"RA_OF_ASC_NODE":105.2617,"ARG_OF_PERICENTER":248.8465,"MEAN_ANOMALY":256.5906,"EPHEMERIS_TYPE":0,"CLASSIFICATION_TYPE":"U","NORAD_CAT_ID":56843,"ELEMENT_SET_NO":999,"REV_AT_EPOCH":578,"BSTAR":0.056859183,"MEAN_MOTION_DOT":0.0136961,"MEAN_MOTION_DDOT":0}]
